STARLINK-2143           
1 47733U 21017M   22104.39140367  .00006161  00000+0  43212-3 0  9995
2 47733  53.0531 140.0237 0001928  41.6152 318.4983 15.06401373 62812
STARLINK-2144           
1 47734U 21017N   22104.54344110  .00006982  00000+0  48704-3 0  9997
2 47734  53.0523 129.3547 0001850  51.9481 308.1675 15.06409104 62949
STARLINK-2146           
1 47735U 21017P   22104.34484201  .00013749  00000+0  93952-3 0  9996
2 47735  53.0558  55.2320 0001939  62.4340 297.6846 15.06423453 63949
STARLINK-2147           
1 47736U 21017Q   22104.44483620  .00000759  00000+0  69854-4 0  9994
2 47736  53.0553 119.8023 0001963  57.7436 302.3743 15.06401401 62423
STARLINK-2148           
1 47737U 21017R   22104.21597907  .00005597  00000+0  19982-3 0  9995
2 47737  53.0592  47.6283 0001694 107.3221 252.7964 15.30387889 63411
STARLINK-2149           
1 47738U 21017S   22104.52592988  .00004700  00000+0  33416-3 0  9997
2 47738  53.0534 119.4359 0001610  58.2380 301.8766 15.06404167 63113
STARLINK-2150           
1 47739U 21017T   22104.83877806  .00009396  00000+0  64850-3 0  9999
2 47739  53.0531 143.0288 0001800  58.7597 301.3569 15.06418761 62133
STARLINK-2152           
1 47740U 21017U   22104.75354264  .00003650  00000+0  26382-3 0  9995
2 47740  53.0537 128.4088 0001793  58.1124 302.0039 15.06399749 62322
STARLINK-2154           
1 47741U 21017V   22104.43655926  .00002866  00000+0  21128-3 0  9991
2 47741  53.0539 129.8328 0001791  56.9079 303.2082 15.06390640 62917
STARLINK-2156           
1 47742U 21017W   22104.44854636  .00005395  00000+0  38087-3 0  9994
2 47742  53.0523 119.7830 0001680  58.8122 301.3032 15.06391081 63100
STARLINK-2157           
1 47743U 21017X   22104.73971589  .00004252  00000+0  30416-3 0  9993
2 47743  53.0545 118.4736 0001838  55.1647 304.9514 15.06405973 62461
STARLINK-2158           
1 47744U 21017Y   22104.51855264  .00002480  00000+0  18532-3 0  9997
2 47744  53.0536 119.4743 0001729  54.4918 305.6232 15.06402212 63114
STARLINK-2159           
1 47745U 21017Z   22104.48076876  .00002223  00000+0  16805-3 0  9994
2 47745  53.0515 129.6337 0001751  66.3673 293.7500 15.06405013 62913
STARLINK-2160           
1 47746U 21017AA  22104.47339710  .00001323  00000+0  10771-3 0  9999
2 47746  53.0549 129.6595 0001672  52.8182 307.2960 15.06401916 62902
STARLINK-2161           
1 47747U 21017AB  22104.47064626  .00005894  00000+0  41424-3 0  9997
2 47747  53.0528 119.6782 0001761  50.9712 309.1433 15.06398997 63084
STARLINK-2162           
1 47748U 21017AC  22104.33058869  .00002347  00000+0  17648-3 0  9996
2 47748  53.0529 120.3100 0001887  47.4976 312.6172 15.06388523 63039
STARLINK-2163           
1 47749U 21017AD  22104.47802892  .00002958  00000+0  21748-3 0  9999
2 47749  53.0555 119.6451 0001605  55.9460 304.1681 15.06388425 63053
STARLINK-2164           
1 47750U 21017AE  22104.45589188  .00000744  00000+0  68832-4 0  9996
2 47750  53.0543 119.7534 0001693  49.6026 310.5111 15.06398974 63059
STARLINK-2168           
1 47751U 21017AF  22104.41994493  .00003209  00000+0  23421-3 0  9995
2 47751  53.0537 109.8896 0002039  47.2311 312.8849 15.06408701 63198
STARLINK-2169           
1 47752U 21017AG  22104.32090370  .00003376  00000+0  24545-3 0  9990
2 47752  53.0529 125.3536 0001818  53.3472 306.7684 15.06399649 63014
STARLINK-2170           
1 47753U 21017AH  22104.76092136  .00004634  00000+0  32979-3 0  9999
2 47753  53.0544 128.3788 0001828  52.1168 307.9986 15.06400530 62327
STARLINK-2171           
1 47754U 21017AJ  22104.79777933  .00002775  00000+0  20513-3 0  9993
2 47754  53.0554 128.2211 0001909  47.6001 312.5149 15.06394450 62331
STARLINK-2172           
1 47755U 21017AK  22104.24529814  .00709312  00000+0  27523-2 0  9995
2 47755  53.0480  87.2430 0006884 270.4092  89.6143 15.84817669 62862
STARLINK-2174           
1 47756U 21017AL  22104.79409265  .00004920  00000+0  34893-3 0  9995
2 47756  53.0527 128.2326 0001734  55.8340 304.2813 15.06403101 62333
STARLINK-2175           
1 47757U 21017AM  22104.44760478  .00006010  00000+0  42195-3 0  9990
2 47757  53.0530 129.7937 0001984  47.9878 312.1280 15.06407048 62900
STARLINK-2176           
1 47758U 21017AN  22104.24955538  .00104751  15189-4  32877-3 0  9998
2 47758  53.0507  91.5137 0004178 278.1795  81.8757 15.91354779 63486
STARLINK-2178           
1 47760U 21017AQ  22104.47986136  .00005702  00000+0  40139-3 0  9991
2 47760  53.0540 139.6390 0001814  44.5031 315.6103 15.06399020 62805
STARLINK-2179           
1 47761U 21017AR  22104.77566676  .00005655  00000+0  39823-3 0  9993
2 47761  53.0534 128.3141 0001799  60.2173 299.8995 15.06402674 62332
STARLINK-2180           
1 47762U 21017AS  22104.80097070  .00008272  00000+0  57325-3 0  9990
2 47762  53.0533 143.2035 0001931  41.9932 318.1205 15.06422272 62129
STARLINK-2181           
1 47763U 21017AT  22104.35315149  .00008344  00000+0  57822-3 0  9993
2 47763  53.0547 135.2129 0002197  50.0781 310.0400 15.06409390 62829
STARLINK-2182           
1 47764U 21017AU  22104.45543556  .00006280  00000+0  43992-3 0  9990
2 47764  53.0540 144.7491 0001800  54.0585 306.0570 15.06415431 62754
STARLINK-2183           
1 47765U 21017AV  22104.29754585  .00747758  00000+0  37979-2 0  9998
2 47765  53.0518 105.6870 0001597  52.3457 307.7708 15.78903714 63240
STARLINK-2184           
1 47766U 21017AW  22104.80560318  .00002439  00000+0  18255-3 0  9992
2 47766  53.0529 143.1792 0002077  41.6659 318.4488 15.06409567 62120
STARLINK-2185           
1 47767U 21017AX  22104.76459440  .00001240  00000+0  10213-3 0  9996
2 47767  53.0521 128.3613 0002087  50.2341 309.8832 15.06399908 62332
STARLINK-2189           
1 47768U 21017AY  22104.83414119  .00005291  00000+0  37371-3 0  9993
2 47768  53.0530 143.0537 0001730  53.4695 306.6453 15.06409103 62134
STARLINK-2192           
1 47769U 21017AZ  22104.48261434  .00002461  00000+0  18406-3 0  9999
2 47769  53.0543 109.6109 0001850  48.6899 311.4249 15.06406475 63246
STARLINK-2193           
1 47770U 21017BA  22104.49045198  .00000838  00000+0  75182-4 0  9990
2 47770  53.0512 124.6039 0002057  47.0433 313.0728 15.06396306 63016
STARLINK-2194           
1 47771U 21017BB  22104.76689449  .00002926  00000+0  21524-3 0  9994
2 47771  53.0555 123.3518 0001644  49.5239 310.5893 15.06404111 62405
STARLINK-2195           
1 47772U 21017BC  22104.49091460  .00002969  00000+0  21820-3 0  9991
2 47772  53.0546 139.5799 0001718  56.2470 303.8683 15.06393492 62782
STARLINK-2196           
1 47773U 21017BD  22104.81895404  .00002565  00000+0  19093-3 0  9999
2 47773  53.0548 138.1159 0001600  49.8011 310.3118 15.06414699 62193
STARLINK-2197           
1 47774U 21017BE  22104.81527835  .00010431  00000+0  71768-3 0  9998
2 47774  53.0533 138.1303 0001864  48.0135 312.1012 15.06424092 62190
STARLINK-2198           
1 47775U 21017BF  22104.49460315  .00003433  00000+0  24929-3 0  9993
2 47775  53.0532 139.5674 0001916  50.1739 309.9418 15.06396260 62838
STARLINK-2209           
1 47776U 21017BG  22104.58766869  .00003904  00000+0  28080-3 0  9992
2 47776  53.0529 129.1495 0002197  50.2959 309.8224 15.06406054 62307
STARLINK-2210           
1 47777U 21017BH  22104.45866997  .00002574  00000+0  19167-3 0  9990
2 47777  53.0541 129.7388 0001910  42.3609 317.7528 15.06395525 62939
STARLINK-2211           
1 47778U 21017BJ  22104.75722648  .00002714  00000+0  20105-3 0  9998
2 47778  53.0537 128.3846 0001776  58.4193 301.6969 15.06397157 62333
STARLINK-2212           
1 47779U 21017BK  22104.42372804  .00002408  00000+0  14173-3 0  9996
2 47779  53.0548 122.0541 0001659  69.8596 290.2575 15.15484537 63046
STARLINK-2213           
1 47780U 21017BL  22104.45130239  .00002605  00000+0  19378-3 0  9996
2 47780  53.0473 129.7854 0001946  43.1903 316.9238 15.06386528 62965
STARLINK-2223           
1 47781U 21017BM  22104.55082896  .00006418  00000+0  44936-3 0  9997
2 47781  53.0512 129.3200 0001746  55.0810 305.0342 15.06398937 62296
STARLINK-2257           
1 47787U 21018A   22104.43654975  .00008531  00000+0  59089-3 0  9997
2 47787  53.0526 169.8294 0002146  42.3042 317.8112 15.06401876 61775
STARLINK-2314           
1 47788U 21018B   22104.44807081  .00014448  00000+0  98620-3 0  9995
2 47788  53.0556 144.7813 0001946  46.5640 313.5510 15.06423900 62144
STARLINK-2315           
1 47789U 21018C   22104.82909927  .00004853  00000+0  34438-3 0  9996
2 47789  53.0542 148.0804 0002061  53.2944 306.8234 15.06408235 61778
STARLINK-2319           
1 47790U 21018D   22104.47249596  .00007646  00000+0  53158-3 0  9991
2 47790  53.0530 139.6786 0001374  55.7591 304.3528 15.06403616 62210
STARLINK-2322           
1 47791U 21018E   22104.62452306 -.00002039  00000+0 -11800-3 0  9995
2 47791  53.0522 168.9894 0001774  52.7412 307.3738 15.06402741 61460
STARLINK-2334           
1 47792U 21018F   22104.50474111  .00009283  00000+0  64100-3 0  9998
2 47792  53.0529 149.5257 0001918  46.0108 314.1039 15.06415826 62070
STARLINK-2338           
1 47793U 21018G   22104.85121672  .00014085  00000+0  96188-3 0  9995
2 47793  53.0541 147.9757 0001819  47.5124 312.6018 15.06426502 61775
STARLINK-2341           
1 47794U 21018H   22104.45682648  .00011316  00000+0  77705-3 0  9995
2 47794  53.0525 149.7484 0002064  43.6367 316.4785 15.06414910 62060
STARLINK-2347           
1 47795U 21018J   22104.44577026  .00010754  00000+0  73941-3 0  9991
2 47795  53.0526 149.7956 0001633  56.9364 303.1781 15.06415852 62112
STARLINK-2373           
1 47796U 21018K   22104.52685871  .00004270  00000+0  30543-3 0  9996
2 47796  53.0547 149.4343 0001852  51.4898 308.6257 15.06393516 61724
STARLINK-2377           
1 47797U 21018L   22104.62959506  .00001811  00000+0  14044-3 0  9993
2 47797  53.0543 173.9556 0001794  44.5075 315.6058 15.06410035 61390
